STARLINK-36910          
1 68005U 26039V   26070.91667824  .00056274  00000+0  26821-3 0  9992
2 68005  42.9993  41.0947 0001506 266.6583 314.1729 15.82002889  3238
STARLINK-36889          
1 68006U 26039W   26070.91667824  .00125989  00000+0  59398-3 0  9998
2 68006  42.9995  41.0721 0001696 258.6672 330.7639 15.81950908  3238
STARLINK-36592          
1 68007U 26039X   26070.91667824  .00185961  00000+0  87069-3 0  9991
2 68007  42.9991  41.0624 0001678 251.0643 342.6358 15.81920603  3231
STARLINK-36911          
1 68008U 26039Y   26070.91667824  .00221687  00000+0  10345-2 0  9990
2 68008  42.9989  41.0518 0001665 266.7578 331.2258 15.81892242  3237
STARLINK-36956          
1 68009U 26039Z   26070.91667824  .00192150  00000+0  89863-3 0  9995
2 68009  42.9991  41.0401 0001667 270.6619 331.5848 15.81927773  3230
STARLINK-36953          
1 68010U 26039AA  26070.91667824  .00156565  00000+0  73625-3 0  9996
2 68010  42.9991  41.0177 0001697 263.8115 347.0017 15.81911924  3231
STARLINK-36991          
1 68011U 26039AB  26070.91667824 -.01910647  00000+0 -11873-1 0  9994
2 68011  42.9990  41.0159 0001398 257.9169 353.6726 15.79182003  3237
STARLINK-36936          
1 68012U 26039AC  26070.91667824  .00119502  00000+0  56372-3 0  9998
2 68012  42.9990  40.9852 0001183 261.2598   2.3409 15.81960354  3234
STARLINK-36967          
1 68013U 26039AD  26070.91667824 -.01920683  00000+0 -11178-1 0  9995
2 68013  42.9990  41.0302 0001456 265.0597 340.5837 15.80611682  3239
STARLINK-36985          
1 68014U 26039AE  26070.91667824  .00120271  00000+0  56788-3 0  9996
2 68014  42.9990  40.9966 0001734 262.2475 357.0989 15.81937111  3237
STARLINK-36335          
1 68015U 26040A   26070.91667824 -.01180980  44863-3 -22720-2 0  9992
2 68015  97.2748  19.2927 0001023  73.2685 286.9262 16.00530902  2739
STARLINK-36923          
1 68016U 26040B   26070.91667824 -.01180100  44905-3 -22438-2 0  9990
2 68016  97.2749  19.2961 0000972  76.6400 290.3005 16.00737460  2780
