CCSDS_OMM_VERS = 2.0
CREATION_DATE  = 
ORIGINATOR     = 

OBJECT_NAME    = STARLINK-36910
OBJECT_ID      = 2026-039V
CENTER_NAME    = EARTH
REF_FRAME      = TEME
TIME_SYSTEM    = UTC
MEAN_ELEMENT_THEORY = SGP/SGP4

EPOCH          = 2026-03-11T22:00:00.999936
MEAN_MOTION    = 15.82002889
ECCENTRICITY   = .00015066
INCLINATION    = 42.9993
RA_OF_ASC_NODE = 41.0947
ARG_OF_PERICENTER = 266.6583
MEAN_ANOMALY   = 314.1729

EPHEMERIS_TYPE = 0
CLASSIFICATION_TYPE = U
NORAD_CAT_ID   = 68005
ELEMENT_SET_NO = 999
REV_AT_EPOCH   = 323
BSTAR          = .26820654E-3
MEAN_MOTION_DOT = .56274E-3
MEAN_MOTION_DDOT = 0

CCSDS_OMM_VERS = 2.0
CREATION_DATE  = 
ORIGINATOR     = 

OBJECT_NAME    = STARLINK-36889
OBJECT_ID      = 2026-039W
CENTER_NAME    = EARTH
REF_FRAME      = TEME
TIME_SYSTEM    = UTC
MEAN_ELEMENT_THEORY = SGP/SGP4

EPOCH          = 2026-03-11T22:00:00.999936
MEAN_MOTION    = 15.81950908
ECCENTRICITY   = .00016961
INCLINATION    = 42.9995
RA_OF_ASC_NODE = 41.0721
ARG_OF_PERICENTER = 258.6672
MEAN_ANOMALY   = 330.7639

EPHEMERIS_TYPE = 0
CLASSIFICATION_TYPE = U
NORAD_CAT_ID   = 68006
ELEMENT_SET_NO = 999
REV_AT_EPOCH   = 323
BSTAR          = .59398189E-3
MEAN_MOTION_DOT = .125989E-2
MEAN_MOTION_DDOT = 0

CCSDS_OMM_VERS = 2.0
CREATION_DATE  = 
ORIGINATOR     = 

OBJECT_NAME    = STARLINK-36592
OBJECT_ID      = 2026-039X
CENTER_NAME    = EARTH
REF_FRAME      = TEME
TIME_SYSTEM    = UTC
MEAN_ELEMENT_THEORY = SGP/SGP4

EPOCH          = 2026-03-11T22:00:00.999936
MEAN_MOTION    = 15.81920603
ECCENTRICITY   = .00016788
INCLINATION    = 42.9991
RA_OF_ASC_NODE = 41.0624
ARG_OF_PERICENTER = 251.0643
MEAN_ANOMALY   = 342.6358

EPHEMERIS_TYPE = 0
CLASSIFICATION_TYPE = U
NORAD_CAT_ID   = 68007
ELEMENT_SET_NO = 999
REV_AT_EPOCH   = 323
BSTAR          = .87068658E-3
MEAN_MOTION_DOT = .185961E-2
MEAN_MOTION_DDOT = 0

CCSDS_OMM_VERS = 2.0
CREATION_DATE  = 
ORIGINATOR     = 

OBJECT_NAME    = STARLINK-36911
OBJECT_ID      = 2026-039Y
CENTER_NAME    = EARTH
REF_FRAME      = TEME
TIME_SYSTEM    = UTC
MEAN_ELEMENT_THEORY = SGP/SGP4

EPOCH          = 2026-03-11T22:00:00.999936
MEAN_MOTION    = 15.81892242
ECCENTRICITY   = .0001665
INCLINATION    = 42.9989
RA_OF_ASC_NODE = 41.0518
ARG_OF_PERICENTER = 266.7578
MEAN_ANOMALY   = 331.2258

EPHEMERIS_TYPE = 0
CLASSIFICATION_TYPE = U
NORAD_CAT_ID   = 68008
ELEMENT_SET_NO = 999
REV_AT_EPOCH   = 323
BSTAR          = .10345423E-2
MEAN_MOTION_DOT = .221687E-2
MEAN_MOTION_DDOT = 0

CCSDS_OMM_VERS = 2.0
CREATION_DATE  = 
ORIGINATOR     = 

OBJECT_NAME    = STARLINK-36956
OBJECT_ID      = 2026-039Z
CENTER_NAME    = EARTH
REF_FRAME      = TEME
TIME_SYSTEM    = UTC
MEAN_ELEMENT_THEORY = SGP/SGP4

EPOCH          = 2026-03-11T22:00:00.999936
MEAN_MOTION    = 15.81927773
ECCENTRICITY   = .0001667
INCLINATION    = 42.9991
RA_OF_ASC_NODE = 41.0401
ARG_OF_PERICENTER = 270.6619
MEAN_ANOMALY   = 331.5848

EPHEMERIS_TYPE = 0
CLASSIFICATION_TYPE = U
NORAD_CAT_ID   = 68009
ELEMENT_SET_NO = 999
REV_AT_EPOCH   = 323
BSTAR          = .89863451E-3
MEAN_MOTION_DOT = .19215E-2
MEAN_MOTION_DDOT = 0

CCSDS_OMM_VERS = 2.0
CREATION_DATE  = 
ORIGINATOR     = 

OBJECT_NAME    = STARLINK-36953
OBJECT_ID      = 2026-039AA
CENTER_NAME    = EARTH
REF_FRAME      = TEME
TIME_SYSTEM    = UTC
MEAN_ELEMENT_THEORY = SGP/SGP4

EPOCH          = 2026-03-11T22:00:00.999936
MEAN_MOTION    = 15.81911924
ECCENTRICITY   = .00016972
INCLINATION    = 42.9991
RA_OF_ASC_NODE = 41.0177
ARG_OF_PERICENTER = 263.8115
MEAN_ANOMALY   = 347.0017

EPHEMERIS_TYPE = 0
CLASSIFICATION_TYPE = U
NORAD_CAT_ID   = 68010
ELEMENT_SET_NO = 999
REV_AT_EPOCH   = 323
BSTAR          = .73625162E-3
MEAN_MOTION_DOT = .156565E-2
MEAN_MOTION_DDOT = 0

CCSDS_OMM_VERS = 2.0
CREATION_DATE  = 
ORIGINATOR     = 

OBJECT_NAME    = STARLINK-36991
OBJECT_ID      = 2026-039AB
CENTER_NAME    = EARTH
REF_FRAME      = TEME
TIME_SYSTEM    = UTC
MEAN_ELEMENT_THEORY = SGP/SGP4

EPOCH          = 2026-03-11T22:00:00.999936
MEAN_MOTION    = 15.79182003
ECCENTRICITY   = .0001398
INCLINATION    = 42.9990
RA_OF_ASC_NODE = 41.0159
ARG_OF_PERICENTER = 257.9169
MEAN_ANOMALY   = 353.6726

EPHEMERIS_TYPE = 0
CLASSIFICATION_TYPE = U
NORAD_CAT_ID   = 68011
ELEMENT_SET_NO = 999
REV_AT_EPOCH   = 323
BSTAR          = -.11872925E-1
MEAN_MOTION_DOT = -.1910647E-1
MEAN_MOTION_DDOT = 0

CCSDS_OMM_VERS = 2.0
CREATION_DATE  = 
ORIGINATOR     = 

OBJECT_NAME    = STARLINK-36936
OBJECT_ID      = 2026-039AC
CENTER_NAME    = EARTH
REF_FRAME      = TEME
TIME_SYSTEM    = UTC
MEAN_ELEMENT_THEORY = SGP/SGP4

EPOCH          = 2026-03-11T22:00:00.999936
MEAN_MOTION    = 15.81960354
ECCENTRICITY   = .00011838
INCLINATION    = 42.9990
RA_OF_ASC_NODE = 40.9852
ARG_OF_PERICENTER = 261.2598
MEAN_ANOMALY   = 2.3409

EPHEMERIS_TYPE = 0
CLASSIFICATION_TYPE = U
NORAD_CAT_ID   = 68012
ELEMENT_SET_NO = 999
REV_AT_EPOCH   = 323
BSTAR          = .56371677E-3
MEAN_MOTION_DOT = .119502E-2
MEAN_MOTION_DDOT = 0

CCSDS_OMM_VERS = 2.0
CREATION_DATE  = 
ORIGINATOR     = 

OBJECT_NAME    = STARLINK-36967
OBJECT_ID      = 2026-039AD
CENTER_NAME    = EARTH
REF_FRAME      = TEME
TIME_SYSTEM    = UTC
MEAN_ELEMENT_THEORY = SGP/SGP4

EPOCH          = 2026-03-11T22:00:00.999936
MEAN_MOTION    = 15.80611682
ECCENTRICITY   = .00014565
INCLINATION    = 42.9990
RA_OF_ASC_NODE = 41.0302
ARG_OF_PERICENTER = 265.0597
MEAN_ANOMALY   = 340.5837

EPHEMERIS_TYPE = 0
CLASSIFICATION_TYPE = U
NORAD_CAT_ID   = 68013
ELEMENT_SET_NO = 999
REV_AT_EPOCH   = 323
BSTAR          = -.11177898E-1
MEAN_MOTION_DOT = -.1920683E-1
MEAN_MOTION_DDOT = 0

CCSDS_OMM_VERS = 2.0
CREATION_DATE  = 
ORIGINATOR     = 

OBJECT_NAME    = STARLINK-36985
OBJECT_ID      = 2026-039AE
CENTER_NAME    = EARTH
REF_FRAME      = TEME
TIME_SYSTEM    = UTC
MEAN_ELEMENT_THEORY = SGP/SGP4

EPOCH          = 2026-03-11T22:00:00.999936
MEAN_MOTION    = 15.81937111
ECCENTRICITY   = .00017346
INCLINATION    = 42.9990
RA_OF_ASC_NODE = 40.9966
ARG_OF_PERICENTER = 262.2475
MEAN_ANOMALY   = 357.0989

EPHEMERIS_TYPE = 0
CLASSIFICATION_TYPE = U
NORAD_CAT_ID   = 68014
ELEMENT_SET_NO = 999
REV_AT_EPOCH   = 323
BSTAR          = .56788058E-3
MEAN_MOTION_DOT = .120271E-2
MEAN_MOTION_DDOT = 0

CCSDS_OMM_VERS = 2.0
CREATION_DATE  = 
ORIGINATOR     = 

OBJECT_NAME    = STARLINK-36335
OBJECT_ID      = 2026-040A
CENTER_NAME    = EARTH
REF_FRAME      = TEME
TIME_SYSTEM    = UTC
MEAN_ELEMENT_THEORY = SGP/SGP4

EPOCH          = 2026-03-11T22:00:00.999936
MEAN_MOTION    = 16.00530902
ECCENTRICITY   = .00010236
INCLINATION    = 97.2748
RA_OF_ASC_NODE = 19.2927
ARG_OF_PERICENTER = 73.2685
MEAN_ANOMALY   = 286.9262

EPHEMERIS_TYPE = 0
CLASSIFICATION_TYPE = U
NORAD_CAT_ID   = 68015
ELEMENT_SET_NO = 999
REV_AT_EPOCH   = 273
BSTAR          = -.22720171E-2
MEAN_MOTION_DOT = -.118098E-1
MEAN_MOTION_DDOT = .44862947E-3

CCSDS_OMM_VERS = 2.0
CREATION_DATE  = 
ORIGINATOR     = 

OBJECT_NAME    = STARLINK-36923
OBJECT_ID      = 2026-040B
CENTER_NAME    = EARTH
REF_FRAME      = TEME
TIME_SYSTEM    = UTC
MEAN_ELEMENT_THEORY = SGP/SGP4

EPOCH          = 2026-03-11T22:00:00.999936
MEAN_MOTION    = 16.00737460
ECCENTRICITY   = .00009728
INCLINATION    = 97.2749
RA_OF_ASC_NODE = 19.2961
ARG_OF_PERICENTER = 76.6400
MEAN_ANOMALY   = 290.3005

EPHEMERIS_TYPE = 0
CLASSIFICATION_TYPE = U
NORAD_CAT_ID   = 68016
ELEMENT_SET_NO = 999
REV_AT_EPOCH   = 278
BSTAR          = -.22437618E-2
MEAN_MOTION_DOT = -.11801E-1
MEAN_MOTION_DDOT = .44905492E-3

